0 COSMOS 2251 DEB
1 35833U 93036ATF 13263.63137009  .00010063  00000-0  21505-2 0  3547
2 35833 074.0274 135.5507 0015567 121.1944 268.9862 14.58829267215359
0 COSMOS 2251 DEB
1 35833U 93036ATF 13269.59156456  .00169054  00000-0  34359-1 0  3551
2 35833 074.0179 124.1866 0018954 296.5934 063.4372 14.59865572216236
